OOV-CUBE (TUBSAT-30)    
1 60240U 24128F   26063.03822873  .00005107  00000+0  38902-3 0  9996
2 60240  61.9937 232.0752 0054992 111.2238 249.4739 15.02197966 90314
